[{"OBJECT_NAME":"AC1-003","OBJECT_ID":"2025-276Z","EPOCH":"2026-03-09T17:12:51.689952","MEAN_MOTION":15.17742943,"ECCENTRICITY":0.0003195,"INCLINATION":97.4278,"RA_OF_ASC_NODE":143.9026,"ARG_OF_PERICENTER":29.6743,"MEAN_ANOMALY":330.4672,"EPHEMERIS_TYPE":0,"CLASSIFICATION_TYPE":"U","NORAD_CAT_ID":66689,"ELEMENT_SET_NO":999,"REV_AT_EPOCH":1531,"BSTAR":0.00015796492,"MEAN_MOTION_DOT":3.121e-5,"MEAN_MOTION_DDOT":0},{"OBJECT_NAME":"STARLINK-36261","OBJECT_ID":"2025-299D","EPOCH":"2026-03-09T22:00:01.999584","MEAN_MOTION":15.32372839,"ECCENTRICITY":0.00013283,"INCLINATION":43.0007,"RA_OF_ASC_NODE":167.8162,"ARG_OF_PERICENTER":279.5019,"MEAN_ANOMALY":305.2641,"EPHEMERIS_TYPE":0,"CLASSIFICATION_TYPE":"U","NORAD_CAT_ID":67105,"ELEMENT_SET_NO":999,"REV_AT_EPOCH":590,"BSTAR":-0.069612872,"MEAN_MOTION_DOT":-0.02009732,"MEAN_MOTION_DDOT":0}]
